STARLINK-1481
1 25742C 20038N   21325.17638004  .00005126  00000-0  34347-3 0  3258
2 25742  53.0534  82.4372 0001326  88.1808 215.1372 15.06394087    10
